[
    {
        "Altitude(m)": 607886.7079439426,
        "Argument of Periapsis(deg)": 0.0,
        "Eccentricity": 0.0,
        "Inclination(deg)": 60.0,
        "Latitude(deg)": 40.998488334386465,
        "Longitude(deg)": 179.97303680404892,
        "Mean Anomaly(deg)": 49.09089999999999,
        "RAAN(deg)": 250.00000000000003,
        "Satellite Name": "Test1 1103",
        "Satellite Number": 1103,
        "Semi-Major Axis(m)": 6980739.136638005,
        "Time(s)": 0
    },
    {
        "Altitude(m)": 607987.6218049898,
        "Argument of Periapsis(deg)": 0.00010418945913296404,
        "Eccentricity": 0.0,
        "Inclination(deg)": 60.0,
        "Latitude(deg)": 41.46357782072461,
        "Longitude(deg)": -179.52273403613253,
        "Mean Anomaly(deg)": 49.711006145461795,
        "RAAN(deg)": 249.99957995086027,
        "Satellite Name": "Test1 1103",
        "Satellite Number": 1103,
        "Semi-Major Axis(m)": 6980739.136638005,
        "Time(s)": 10
    }
]